start=new Date('2021-10-06T00:00:00.000Z').valueOf();
sats=[{"ELEMENT_SET_NO":"999","DECAY_DATE":null,"MEAN_MOTION_DDOT":"0.0000000000000","TIME_SYSTEM":"UTC","NORAD_CAT_ID":"45209","OBJECT_TYPE":"PAYLOAD","MEAN_MOTION":"15.69704313","RA_OF_ASC_NODE":"33.3995","CLASSIFICATION_TYPE":"U","PERIOD":"91.737","EPHEMERIS_TYPE":"0","MEAN_ANOMALY":"355.1513","REF_FRAME":"TEME","GP_ID":"186304690","SEMIMAJOR_AXIS":"6737.880","PERIAPSIS":"355.198","TLE_LINE1":"1 45209U 20012AH  21278.80612849  .00000539  00000-0  93720-5 0  9996","APOAPSIS":"364.292","CENTER_NAME":"EARTH","BSTAR":"0.00000937200000","COUNTRY_CODE":"US","EPOCH":"2021-10-05T19:20:49.501536","MEAN_MOTION_DOT":"0.00000539","ECCENTRICITY":"0.00067490","REV_AT_EPOCH":"9217","RCS_SIZE":"LARGE","MEAN_ELEMENT_THEORY":"SGP4","TLE_LINE2":"2 45209  53.0555  33.3995 0006749   4.9570 355.1513 15.69704313 92179","LAUNCH_DATE":"2020-02-17","FILE":"3146344","OBJECT_NAME":"STARLINK-1218","SITE":"AFETR","ARG_OF_PERICENTER":"4.9570","INCLINATION":"53.0555","OBJECT_ID":"2020-012AH"},{"EPOCH":"2021-10-05T11:09:18.542880","COUNTRY_CODE":"US","ECCENTRICITY":"0.00020930","MEAN_MOTION_DOT":"0.00000729","BSTAR":"0.00006783700000","TLE_LINE2":"2 45210  53.0550  82.1446 0002093  92.2215 267.9013 15.06402148 90572","LAUNCH_DATE":"2020-02-17","FILE":"3146246","REV_AT_EPOCH":"9057","RCS_SIZE":"LARGE","MEAN_ELEMENT_THEORY":"SGP4","ARG_OF_PERICENTER":"92.2215","SITE":"AFETR","OBJECT_NAME":"STARLINK-1219","OBJECT_ID":"2020-012AJ","INCLINATION":"53.0550","MEAN_MOTION_DDOT":"0.0000000000000","DECAY_DATE":null,"ELEMENT_SET_NO":"999","MEAN_MOTION":"15.06402148","RA_OF_ASC_NODE":"82.1446","CLASSIFICATION_TYPE":"U","NORAD_CAT_ID":"45210","TIME_SYSTEM":"UTC","OBJECT_TYPE":"PAYLOAD","PERIOD":"95.592","EPHEMERIS_TYPE":"0","PERIAPSIS":"545.758","CENTER_NAME":"EARTH","APOAPSIS":"548.656","TLE_LINE1":"1 45210U 20012AJ  21278.46479795  .00000729  00000-0  67837-4 0  9991","REF_FRAME":"TEME","MEAN_ANOMALY":"267.9013","GP_ID":"186282543","SEMIMAJOR_AXIS":"6925.342"},{"ARG_OF_PERICENTER":"89.3557","SITE":"AFETR","OBJECT_NAME":"STARLINK-1231","OBJECT_ID":"2020-012AL","INCLINATION":"53.0555","EPOCH":"2021-10-05T03:59:24.487296","COUNTRY_CODE":"US","ECCENTRICITY":"0.00021080","MEAN_MOTION_DOT":"-0.00001588","BSTAR":"-0.00008773300000","LAUNCH_DATE":"2020-02-17","TLE_LINE2":"2 45212  53.0555  83.4838 0002108  89.3557 270.7673 15.06381996 91427","FILE":"3145988","RCS_SIZE":"LARGE","REV_AT_EPOCH":"9142","MEAN_ELEMENT_THEORY":"SGP4","PERIOD":"95.593","EPHEMERIS_TYPE":"0","PERIAPSIS":"545.809","APOAPSIS":"548.729","CENTER_NAME":"EARTH","TLE_LINE1":"1 45212U 20012AL  21278.16625564 -.00001588  00000-0 -87733-4 0  9990","REF_FRAME":"TEME","MEAN_ANOMALY":"270.7673","SEMIMAJOR_AXIS":"6925.404","GP_ID":"186275078","MEAN_MOTION_DDOT":"0.0000000000000","DECAY_DATE":null,"ELEMENT_SET_NO":"999","MEAN_MOTION":"15.06381996","RA_OF_ASC_NODE":"83.4838","CLASSIFICATION_TYPE":"U","NORAD_CAT_ID":"45212","TIME_SYSTEM":"UTC","OBJECT_TYPE":"PAYLOAD"},{"OBJECT_NAME":"STARLINK-1232","SITE":"AFETR","ARG_OF_PERICENTER":"85.7316","INCLINATION":"53.0545","OBJECT_ID":"2020-012AM","BSTAR":"0.00017193000000","COUNTRY_CODE":"US","EPOCH":"2021-10-05T10:33:16.819200","MEAN_MOTION_DOT":"0.00002232","ECCENTRICITY":"0.00014400","RCS_SIZE":"LARGE","REV_AT_EPOCH":"9151","MEAN_ELEMENT_THEORY":"SGP4","LAUNCH_DATE":"2020-02-17","TLE_LINE2":"2 45213  53.0545  82.3042 0001440  85.7316 274.3837 15.05672397 91512","FILE":"3145988","PERIOD":"95.638","EPHEMERIS_TYPE":"0","MEAN_ANOMALY":"274.3837","REF_FRAME":"TEME","SEMIMAJOR_AXIS":"6927.579","GP_ID":"186275828","PERIAPSIS":"548.447","TLE_LINE1":"1 45213U 20012AM  21278.43977800  .00002232  00000-0  17193-3 0  9991","APOAPSIS":"550.442","CENTER_NAME":"EARTH","ELEMENT_SET_NO":"999","DECAY_DATE":null,"MEAN_MOTION_DDOT":"0.0000000000000","TIME_SYSTEM":"UTC","NORAD_CAT_ID":"45213","OBJECT_TYPE":"PAYLOAD","MEAN_MOTION":"15.05672397","RA_OF_ASC_NODE":"82.3042","CLASSIFICATION_TYPE":"U"},{"COUNTRY_CODE":"US","EPOCH":"2021-10-05T17:42:05.010336","MEAN_MOTION_DOT":"0.00000041","ECCENTRICITY":"0.00021640","BSTAR":"0.00002166100000","LAUNCH_DATE":"2020-02-17","TLE_LINE2":"2 45214  53.0536  80.9109 0002164  98.3532 261.7702 15.06408696 91550","FILE":"3146344","REV_AT_EPOCH":"9155","RCS_SIZE":"LARGE","MEAN_ELEMENT_THEORY":"SGP4","SITE":"AFETR","ARG_OF_PERICENTER":"98.3532","OBJECT_NAME":"STARLINK-1233","INCLINATION":"53.0536","OBJECT_ID":"2020-012AN","MEAN_MOTION_DDOT":"0.0000000000000","DECAY_DATE":null,"ELEMENT_SET_NO":"999","MEAN_MOTION":"15.06408696","RA_OF_ASC_NODE":"80.9109","CLASSIFICATION_TYPE":"U","TIME_SYSTEM":"UTC","NORAD_CAT_ID":"45214","OBJECT_TYPE":"PAYLOAD","PERIOD":"95.592","EPHEMERIS_TYPE":"0","PERIAPSIS":"545.688","TLE_LINE1":"1 45214U 20012AN  21278.73755799  .00000041  00000-0  21661-4 0  9998","APOAPSIS":"548.686","CENTER_NAME":"EARTH","MEAN_ANOMALY":"261.7702","REF_FRAME":"TEME","SEMIMAJOR_AXIS":"6925.322","GP_ID":"186305191"},{"INCLINATION":"53.0536","OBJECT_ID":"2020-012AP","SITE":"AFETR","ARG_OF_PERICENTER":"81.6719","OBJECT_NAME":"STARLINK-1245","FILE":"3146344","TLE_LINE2":"2 45215  53.0536  80.3276 0001632  81.6719 278.4455 15.06393751 91512","LAUNCH_DATE":"2020-02-17","MEAN_ELEMENT_THEORY":"SGP4","REV_AT_EPOCH":"9151","RCS_SIZE":"LARGE","MEAN_MOTION_DOT":"0.00001185","ECCENTRICITY":"0.00016320","COUNTRY_CODE":"US","EPOCH":"2021-10-05T20:47:51.992736","BSTAR":"0.00009847200000","TLE_LINE1":"1 45215U 20012AP  21278.86657399  .00001185  00000-0  98472-4 0  9994","APOAPSIS":"548.363","CENTER_NAME":"EARTH","PERIAPSIS":"546.102","SEMIMAJOR_AXIS":"6925.368","GP_ID":"186303939","MEAN_ANOMALY":"278.4455","REF_FRAME":"TEME","EPHEMERIS_TYPE":"0","PERIOD":"95.593","RA_OF_ASC_NODE":"80.3276","CLASSIFICATION_TYPE":"U","MEAN_MOTION":"15.06393751","OBJECT_TYPE":"PAYLOAD","TIME_SYSTEM":"UTC","NORAD_CAT_ID":"45215","MEAN_MOTION_DDOT":"0.0000000000000","DECAY_DATE":null,"ELEMENT_SET_NO":"999"},{"SITE":"AFETR","ARG_OF_PERICENTER":"104.3889","OBJECT_NAME":"STARLINK-1254","INCLINATION":"53.0547","OBJECT_ID":"2020-012AQ","MEAN_MOTION_DOT":"0.00814165","ECCENTRICITY":"0.00015420","COUNTRY_CODE":"US","EPOCH":"2021-10-05T10:36:52.111584","BSTAR":"0.00558170000000","FILE":"3145988","LAUNCH_DATE":"2020-02-17","TLE_LINE2":"2 45216  53.0547  71.7728 0001542 104.3889 255.7300 15.71801150 91507","MEAN_ELEMENT_THEORY":"SGP4","RCS_SIZE":"LARGE","REV_AT_EPOCH":"9150","EPHEMERIS_TYPE":"0","PERIOD":"91.615","TLE_LINE1":"1 45216U 20012AQ  21278.44226981  .00814165  00000-0  55817-2 0  9992","APOAPSIS":"354.789","CENTER_NAME":"EARTH","PERIAPSIS":"352.713","SEMIMAJOR_AXIS":"6731.886","GP_ID":"186275578","MEAN_ANOMALY":"255.7300","REF_FRAME":"TEME","MEAN_MOTION_DDOT":"0.0000000000000","ELEMENT_SET_NO":"999","DECAY_DATE":null,"RA_OF_ASC_NODE":"71.7728","CLASSIFICATION_TYPE":"U","MEAN_MOTION":"15.71801150","OBJECT_TYPE":"PAYLOAD","TIME_SYSTEM":"UTC","NORAD_CAT_ID":"45216"},{"TLE_LINE2":"2 45217  53.0548  81.6390 0001828 102.8394 257.2799 15.06394956 91536","LAUNCH_DATE":"2020-02-17","FILE":"3146344","REV_AT_EPOCH":"9153","RCS_SIZE":"LARGE","MEAN_ELEMENT_THEORY":"SGP4","COUNTRY_CODE":"US","EPOCH":"2021-10-05T13:48:32.599584","MEAN_MOTION_DOT":"0.00001449","ECCENTRICITY":"0.00018280","BSTAR":"0.00011616000000","INCLINATION":"53.0548","OBJECT_ID":"2020-012AR","SITE":"AFETR","ARG_OF_PERICENTER":"102.8394","OBJECT_NAME":"STARLINK-1271","MEAN_MOTION":"15.06394956","CLASSIFICATION_TYPE":"U","RA_OF_ASC_NODE":"81.6390","TIME_SYSTEM":"UTC","NORAD_CAT_ID":"45217","OBJECT_TYPE":"PAYLOAD","MEAN_MOTION_DDOT":"0.0000000000000","DECAY_DATE":null,"ELEMENT_SET_NO":"999","PERIAPSIS":"545.963","TLE_LINE1":"1 45217U 20012AR  21278.57537731  .00001449  00000-0  11616-3 0  9998","APOAPSIS":"548.495","CENTER_NAME":"EARTH","MEAN_ANOMALY":"257.2799","REF_FRAME":"TEME","SEMIMAJOR_AXIS":"6925.364","GP_ID":"186304941","PERIOD":"95.592","EPHEMERIS_TYPE":"0"},{"DECAY_DATE":null,"ELEMENT_SET_NO":"999","MEAN_MOTION_DDOT":"0.0000000000000","OBJECT_TYPE":"PAYLOAD","TIME_SYSTEM":"UTC","NORAD_CAT_ID":"45219","CLASSIFICATION_TYPE":"U","RA_OF_ASC_NODE":"60.7534","MEAN_MOTION":"15.06384740","EPHEMERIS_TYPE":"0","PERIOD":"95.593","SEMIMAJOR_AXIS":"6925.395","GP_ID":"186304691","MEAN_ANOMALY":"254.9202","REF_FRAME":"TEME","TLE_LINE1":"1 45219U 20012AT  21278.77258538 -.00000325  00000-0 -29324-5 0  9998","APOAPSIS":"548.382","CENTER_NAME":"EARTH","PERIAPSIS":"546.138","BSTAR":"-0.00000293240000","MEAN_MOTION_DOT":"-0.00000325","ECCENTRICITY":"0.00016200","COUNTRY_CODE":"US","EPOCH":"2021-10-05T18:32:31.376832","MEAN_ELEMENT_THEORY":"SGP4","RCS_SIZE":"LARGE","REV_AT_EPOCH":"9185","FILE":"3146344","LAUNCH_DATE":"2020-02-17","TLE_LINE2":"2 45219  53.0551  60.7534 0001620 105.1966 254.9202 15.06384740 91859","OBJECT_NAME":"STARLINK-1187","SITE":"AFETR","ARG_OF_PERICENTER":"105.1966","INCLINATION":"53.0551","OBJECT_ID":"2020-012AT"},{"OBJECT_TYPE":"PAYLOAD","TIME_SYSTEM":"UTC","NORAD_CAT_ID":"45220","RA_OF_ASC_NODE":"43.1888","CLASSIFICATION_TYPE":"U","MEAN_MOTION":"15.71474368","ELEMENT_SET_NO":"999","DECAY_DATE":null,"MEAN_MOTION_DDOT":"0.0000000000000","GP_ID":"186303439","SEMIMAJOR_AXIS":"6732.820","MEAN_ANOMALY":"332.1387","REF_FRAME":"TEME","TLE_LINE1":"1 45220U 20012AU  21278.82280230  .00000228  00000-0  63741-5 0  9991","APOAPSIS":"355.037","CENTER_NAME":"EARTH","PERIAPSIS":"354.332","EPHEMERIS_TYPE":"0","PERIOD":"91.634","MEAN_ELEMENT_THEORY":"SGP4","REV_AT_EPOCH":"9198","RCS_SIZE":"LARGE","FILE":"3146344","LAUNCH_DATE":"2020-02-17","TLE_LINE2":"2 45220  53.0536  43.1888 0000524  27.9659 332.1387 15.71474368 91988","BSTAR":"0.00000637410000","MEAN_MOTION_DOT":"0.00000228","ECCENTRICITY":"0.00005240","COUNTRY_CODE":"US","EPOCH":"2021-10-05T19:44:50.118720","INCLINATION":"53.0536","OBJECT_ID":"2020-012AU","OBJECT_NAME":"STARLINK-1188","SITE":"AFETR","ARG_OF_PERICENTER":"27.9659"}];
